LEO EXPRESS 1           
1 58301U 23174AX  26068.76789509  .00017303  00000+0  49741-3 0  9998
2 58301  97.5222 152.4092 0078735 115.9210 245.0174 15.32756831129655
STARLINK-33845          
1 63495U 25071C   26068.50389270  .00022854  00000+0  78173-3 0  9997
2 63495  53.1585 140.6330 0001268  85.2768 274.8377 15.30185595 52722
